COSMOS 2151
1 21422U 91042A   20046.13441620  .00000126  00000-0  98889-5 0  9996
2 21422  82.4992  40.3516 0012633 287.2249  72.7588 14.92107560553572
SL-14 R/B
1 21423U 91042B   20045.72021114  .00000053  00000-0  39718-5 0  9998
2 21423  82.4955 132.5584 0016356 307.6275  52.3453 14.79782477546403
MOLNIYA 1-81
1 21426U 91043A   20040.18877649  .00000119  00000-0  00000+0 0  9998
2 21426  63.9465  91.1547 6951600 272.7768  16.3428  2.00624234209911
SL-6 R/B(2)
1 21429U 91043D   20040.04173566 +.00000060 +00000-0 +00000-0 0  9999
2 21429 063.9178 149.3325 6707356 277.6011 016.5521 01.96678606205779
DELTA 1 DEB
1 21433U 75052DR  20045.79432965 +.00000067 +00000-0 +17457-3 0  9998
2 21433 099.6552 248.2952 0059247 229.8808 193.3618 13.49125822415926
DELTA 1 DEB
1 21434U 75052DS  20045.17726567 -.00000041  00000-0 -68198-4 0  9998
2 21434  99.4687 301.0660 0657313 177.7790 340.8405 12.16068372277723
DELTA 1 DEB
1 21437U 75052DV  20045.52704539 +.00000015 +00000-0 +11860-3 0  9997
2 21437 100.4423 249.8181 0056300 186.6475 202.5869 13.36525227403125
DELTA 1 DEB
1 21438U 75052DW  20046.06385042 -.00000004  00000-0  74664-4 0  9993
2 21438  99.5962  78.0658 0080627  80.5727 343.2203 13.30100027396738
DELTA 1 DEB
1 21439U 75052DX  20044.70585275 -.00000584 +00000-0 -99561-3 0  9999
2 21439 099.8709 109.2757 0387406 095.3967 269.1460 13.15160119306635
DELTA 1 DEB
1 21441U 75052DZ  20045.93224862 -.00000020  00000-0  60451-4 0  9991
2 21441  99.6702  82.2012 0303951 227.9333 256.5109 12.83864997348798
DELTA 1 DEB
1 21442U 75052EA  20045.92511693 +.00000585 +00000-0 +15999-2 0  9992
2 21442 099.5329 186.0565 0375062 166.6768 321.2620 12.95213194338069
DELTA 1 DEB
1 21443U 75052EB  20045.86561410 -.00000030 +00000-0 +22425-4 0  9998
2 21443 099.7501 272.0423 0068839 110.9582 315.3288 13.31350981398641
DELTA 1 DEB
1 21444U 75052EC  20045.37546846 -.00000059 +00000-0 -64364-4 0  9991
2 21444 099.6509 202.4506 0266811 233.8552 152.8276 12.93684970357461
DELTA 1 DEB
1 21445U 75052ED  20046.18588365 -.00000027  00000-0  32796-4 0  9992
2 21445  99.8321 157.5338 0081686 203.5585 225.0615 13.28330515395749
DELTA 1 DEB
1 21446U 75052EE  20045.82282619 +.00000001 +00000-0 +13324-3 0  9992
2 21446 099.6718 251.2388 0373725 022.7661 041.2761 12.71329150335293
DELTA 1 DEB
1 21448U 75052EG  20045.80972403 -.00000048 +00000-0 -21783-4 0  9991
2 21448 099.6149 257.4619 0129674 207.3347 213.9878 13.18035848384620
DELTA 1 DEB
1 21450U 75052EJ  20046.04789770  .00000027  00000-0  13958-3 0  9993
2 21450  99.9676 327.9345 0060462  41.8517 330.6840 13.34470832400954
DELTA 1 DEB
1 21452U 75052EL  20045.34117319 -.00001120  00000-0 -47874-2 0  9991
2 21452  99.7527 355.8794 0594703 297.7964 223.6615 12.34492678289424
DELTA 1 DEB
1 21453U 75052EM  20045.91490924 -.00000075 +00000-0 -73441-4 0  9990
2 21453 099.9252 286.9503 0120080 154.8009 272.3308 13.26091817391965
DELTA 1 DEB
1 21457U 75052ER  20045.76450535 +.00000682 +00000-0 +10798-2 0  9997
2 21457 099.9705 325.8847 0306204 356.0613 055.8381 13.36392705392504
DELTA 1 DEB
1 21458U 75052ES  20046.14001123  .00000105  00000-0  55028-3 0  9992
2 21458  99.7970 277.3644 0564489  56.9332  52.6709 12.43877558305984
DELTA 1 DEB
1 21459U 75052ET  20045.91669167 -.00000047 +00000-0 -59932-5 0  9992
2 21459 099.8604 280.2514 0052960 354.9209 072.5470 13.40558279406936
DELTA 1 DEB
1 21460U 75052EU  20045.69148948 -.00000018  00000-0  47549-4 0  9995
2 21460  99.6398  84.7569 0084239 185.5057 284.9933 13.27908271394706
DELTA 1 DEB
1 21461U 75052EV  20045.63269001 -.00000029 +00000-0 +20560-4 0  9990
2 21461 099.6963 291.8894 0206664 113.4030 303.2597 13.19786619385315
DELTA 1 DEB
1 21463U 75052EX  20046.08165978  .00000026  00000-0  97143-4 0  9997
2 21463 100.0128 225.6499 0156917 226.2640 263.7025 13.55858129421883
DELTA 1 DEB
1 21464U 75052EY  20045.39790573 +.00001132 +00000-0 +31572-2 0  9997
2 21464 099.8396 108.5401 0205176 347.7351 071.4570 13.07486024357995
DELTA 1 DEB
1 21465U 75052EZ  20045.66795410  .00000090  00000-0  21561-3 0  9993
2 21465  99.8706 296.3643 0069462  39.2328  15.4020 13.47441262413594
DELTA 1 DEB
1 21466U 75052FA  20045.34376182 +.00000106 +00000-0 +34022-3 0  9994
2 21466 099.7638 344.5825 0134947 189.9846 328.7070 13.21175954386177
DELTA 1 DEB
1 21467U 75052FB  20046.15206157 -.00000013  00000-0  47309-4 0  9990
2 21467  99.6411 249.3300 0025836 231.1232 249.7992 13.49218325416215
DELTA 1 DEB
1 21469U 75052FD  20045.47817528 +.00000066 +00000-0 +37294-3 0  9994
2 21469 099.6501 250.0908 0365112 318.7479 067.7057 12.73992454336353
DELTA 1 DEB
1 21470U 75052FE  20046.17902476  .00000019  00000-0  97550-4 0  9991
2 21470  99.6946 252.9372 0099151 249.9261 228.8158 13.48838139415054
DELTA 1 DEB
1 21471U 75052FF  20045.88524956 +.00000070 +00000-0 +13478-3 0  9995
2 21471 099.6949 176.8238 0253109 018.0546 135.7581 13.55202757422760
DELTA 1 DEB
1 21472U 75052FG  20045.48215170 +.00000187 +00000-0 +26963-3 0  9999
2 21472 099.9327 230.2839 0254977 161.7184 255.4870 13.55760344417827
DELTA 1 DEB
1 21473U 75052FH  20045.91134194 +.00000267 +00000-0 +35826-3 0  9991
2 21473 099.7385 194.0485 0244985 015.1870 134.7027 13.57349656418966
DELTA 1 DEB
1 21475U 75052FK  20044.50177009 -.00000029  00000-0  21901-4 0  9996
2 21475  99.6294 255.3480 0090929 280.6928 106.2188 13.53740531418417
DELTA 1 DEB
1 21492U 75052FM  20044.52413574 -.00000017 +00000-0 +49408-4 0  9996
2 21492 099.6767 259.2541 0062768 030.7393 000.0635 13.33254911400107
DELTA 1 DEB
1 21493U 75052FN  20046.17224354 -.00000321  00000-0 -11637-2 0  9996
2 21493  99.5973 290.2102 0769500 287.7074 236.1993 12.15447454265745
DELTA 1 DEB
1 21496U 75052FR  20046.12307106  .00000027  00000-0  20640-3 0  9997
2 21496  99.8415 172.5587 0342389  77.9737  91.3768 12.82024499346237
DELTA 1 DEB
1 21497U 75052FS  20045.92257818 -.00000022 +00000-0 +39317-4 0  9997
2 21497 099.7675 021.9330 0059436 138.0196 277.1654 13.32713250399708
DELTA 1 DEB
1 21498U 75052FT  20045.92891920 +.00000230 +00000-0 +82590-3 0  9996
2 21498 099.6605 202.8903 0266858 237.9471 277.4238 12.93929139356727
DELTA 1 DEB
1 21499U 75052FU  20045.90356326 +.00000822 +00000-0 +16793-2 0  9999
2 21499 099.6658 273.6074 0154267 112.1658 006.5200 13.31797713385605
DELTA 1 DEB
1 21500U 75052FV  20045.42435733  .00000363  00000-0  14932-3 0  9993
2 21500 100.0489 212.1255 0196589  96.4681 298.6148 14.24354708482417
DELTA 1 DEB
1 21501U 75052FW  20045.23989274 +.00000033 +00000-0 +27520-3 0  9998
2 21501 099.8155 321.2524 0551210 305.2479 212.9889 12.46981975308744
DELTA 1 DEB
1 21504U 75052FZ  20045.80581022 -.00000495  00000-0 -17914-2 0  9992
2 21504  99.8280 348.2509 0551443 280.1779 145.8868 12.47841091306520
DELTA 1 DEB
1 21506U 75052GB  20045.70015448 +.00000095 +00000-0 +33555-3 0  9991
2 21506 099.5879 082.6888 0181054 141.1133 340.0518 13.13194023372602
DELTA 1 DEB
1 21512U 75052GH  20045.65189082 -.00000027  00000-0  32415-4 0  9999
2 21512 100.0808 303.6894 0037571  25.4356  36.4754 13.39862794399058
DELTA 1 DEB
1 21514U 75052GK  20046.04061810  .00000192  00000-0  51435-3 0  9997
2 21514  99.8381 212.4918 0323619 188.6809 298.6366 13.10017359359113
DELTA 1 DEB
1 21515U 75052GL  20045.67131876  .00000659  00000-0  20009-2 0  9996
2 21515  99.7436 315.9115 0273997  82.3907 345.3374 12.97883686362463
DELTA 1 DEB
1 21516U 75052GM  20045.45529028 -.00000041  00000-0  87266-6 0  9991
2 21516  99.7516 271.9509 0070569 119.1619   2.1145 13.32144401387174
DELTA 1 DEB
1 21523U 75052GU  20045.11806817 +.00000023 +00000-0 +29691-3 0  9990
2 21523 099.5736 263.5105 0716245 255.2654 272.5353 12.05830716227955
REX
1 21527U 91045A   20045.94752838  .00000028  00000-0  65897-5 0  9993
2 21527  89.5701  19.3623 0068461 347.6150  12.3355 14.22933268486191
SCOUT G-1 R/B
1 21528U 91045B   20045.91897181 +.00000071 +00000-0 +24305-4 0  9998
2 21528 089.5709 019.9085 0065675 254.2401 157.2703 14.25877547487641
SCOUT G-1 DEB
1 21529U 91045C   20045.75995892 +.00000136 +00000-0 +43351-4 0  9993
2 21529 089.5816 048.1983 0052079 306.5205 053.1203 14.34423311493416
SCOUT G-1 DEB
1 21532U 91045D   20045.78305701  .00000192  00000-0  64124-4 0  9997
2 21532  89.5156 328.4709 0069687  53.8477 358.2619 14.32317753491691
GORIZONT 23
1 21533U 91046A   20045.23604472 -.00000121 +00000-0 +00000-0 0  9998
2 21533 015.2901 359.6744 0008942 311.3324 111.8069 00.98909900023793
SL-12 R/B(2)
1 21536U 91046D   20045.45604793 -.00000046 +00000-0 +00000-0 0  9997
2 21536 014.6183 357.4060 0011728 188.0354 173.7103 01.00934217100443
DELTA 1 DEB
1 21542U 75052GW  20045.35038358 +.00000027 +00000-0 +13921-3 0  9997
2 21542 100.3883 208.5274 0050986 110.1003 312.8092 13.37389484403531
DELTA 1 DEB
1 21543U 75052GX  20045.33800703 -.00000218  00000-0 -11132-3 0  9993
2 21543  99.5692  84.1794 0099876 254.5992 104.4119 13.99312854414122
DELTA 1 DEB
1 21544U 75052GY  20046.14220619  .00004175  00000-0  53463-3 0  9993
2 21544  99.9775 216.8958 0076770  39.1416 321.5307 14.80030797480792
DELTA 1 DEB
1 21545U 75052GZ  20046.01574903  .00000039  00000-0  16582-3 0  9994
2 21545  99.7504 327.2081 0231572 152.5153 340.5273 13.21451897387405
DELTA 1 DEB
1 21546U 75052HA  20045.13082855  .00000737  00000-0  37258-2 0  9994
2 21546  99.5406 117.1473 0611458 304.3830 117.1323 12.26461374285103
DELTA 1 DEB
1 21547U 75052HB  20045.52287312  .00000118  00000-0  19793-3 0  9991
2 21547  99.9600 244.5890 0254971 235.1373 180.6768 13.54306066417831
DELTA 1 DEB
1 21548U 75052HC  20045.75013546 +.00000285 +00000-0 +10010-2 0  9990
2 21548 099.8125 342.3217 0246430 197.3657 231.0329 12.95248278359774
DELTA 1 DEB
1 21549U 75052HD  20045.35979559 -.00000146 +00000-0 -28756-3 0  9997
2 21549 099.8095 193.0443 0204480 170.0987 246.5824 13.07687089370502
